INTELSAT 902 (IS-902)   
1 26900U 01039A   26094.23764672 -.00000281  00000+0  00000+0 0  9998
2 26900   5.9315  72.6706 0004486 298.7599 216.5883  1.00271898 89951
INTELSAT 904 (IS-904)   
1 27380U 02007A   26094.22197449 -.00000223  00000+0  00000+0 0  9994
2 27380   6.7365  70.0593 0007509 326.3781 204.5411  1.00273023 51027
DIRECTV 5 (TEMPO 1)     
1 27426U 02023A   26094.08311943 -.00000056  00000+0  00000+0 0  9998
2 27426   4.6893  76.2183 0003782 309.0319  86.9757  1.00272799 87380
INTELSAT 905 (IS-905)   
1 27438U 02027A   26093.07946694  .00000094  00000+0  00000+0 0  9991
2 27438   6.5662  70.6915 0003267 315.6989  56.4288  1.00273159 50611
GALAXY 3C (G-3C)        
1 27445U 02030A   26094.08615278 -.00000152  00000+0  00000+0 0  9992
2 27445   3.5396  78.9965 0001585  20.0510  29.5147  1.00271706 45754
INTELSAT 906 (IS-906)   
1 27513U 02041A   26094.04628596  .00000014  00000+0  00000+0 0  9999
2 27513   5.6153  73.8182 0003336 309.3798 249.9777  1.00272042 86280
GALAXY 13 (HORIZONS-1)  
1 27954U 03044A   26094.00390580  .00000132  00000+0  00000+0 0  9998
2 27954   1.2270  84.7823 0002184 294.2182  24.7524  1.00274974 45823
INTELSAT 10-02          
1 28358U 04022A   26094.17602648 -.00000011  00000+0  00000+0 0  9990
2 28358   0.0414  40.9899 0002045  32.9911 180.8739  1.00273868 79818
DIRECTV 8               
1 28659U 05019A   26094.22395333  .00000001  00000+0  00000+0 0  9995
2 28659   0.0215 114.1398 0003378 273.4781 126.4960  1.00272057 76331
GALAXY 28 (G-28)        
1 28702U 05022A   26094.21642233 -.00000199  00000+0  00000+0 0  9990
2 28702   3.1082  79.8326 0002274 300.2351 223.2857  1.00270718 51235
GALAXY 16 (G-16)        
1 29236U 06023A   26094.18516841 -.00000128  00000+0  00000+0 0  9998
2 29236   0.0179 209.7815 0002835 170.4988 139.8740  1.00272619 72232
DIRECTV 9S              
1 29494U 06043A   26094.27384983 -.00000113  00000+0  00000+0 0  9990
2 29494   2.2303  81.7758 0003812 309.1608 159.0438  1.00272053 50642
GALAXY 17 (G-17)        
1 31307U 07016B   26094.23071336 -.00000205  00000+0  00000+0 0  9990
2 31307   2.7853  80.8115 0004055 307.0162 162.7732  1.00271754 69063
INTELSAT 11 (IS-11)     
1 32253U 07044B   26094.05183265 -.00000025  00000+0  00000+0 0  9997
2 32253   3.3728  79.5530 0002858 221.4154   1.8985  0.99048005 67718
HORIZONS-2              
1 32388U 07063B   26094.23296670 -.00000253  00000+0  00000+0 0  9995
2 32388   2.4117  81.5248 0002841 304.7122 176.3776  1.00270867 67071
DIRECTV 11              
1 32729U 08013A   26094.13864287 -.00000127  00000+0  00000+0 0  9994
2 32729   0.0432  33.6400 0000319 313.9766 155.5541  1.00272226 44857
GALAXY 18 (G-18)        
1 32951U 08024A   26094.22317333  .00000024  00000+0  00000+0 0  9993
2 32951   0.0170 215.9186 0003076 158.8520 135.1113  1.00272722 45116
