[{"OBJECT_NAME":"INTELSAT 902 (IS-902)","OBJECT_ID":"2001-039A","EPOCH":"2026-04-04T05:42:12.676608","MEAN_MOTION":1.00271898,"ECCENTRICITY":0.00044864,"INCLINATION":5.9315,"RA_OF_ASC_NODE":72.6706,"ARG_OF_PERICENTER":298.7599,"MEAN_ANOMALY":216.5883,"EPHEMERIS_TYPE":0,"CLASSIFICATION_TYPE":"U","NORAD_CAT_ID":26900,"ELEMENT_SET_NO":999,"REV_AT_EPOCH":8995,"BSTAR":0,"MEAN_MOTION_DOT":-2.81e-6,"MEAN_MOTION_DDOT":0},{"OBJECT_NAME":"INTELSAT 904 (IS-904)","OBJECT_ID":"2002-007A","EPOCH":"2026-04-04T05:19:38.595936","MEAN_MOTION":1.00273023,"ECCENTRICITY":0.00075098,"INCLINATION":6.7365,"RA_OF_ASC_NODE":70.0593,"ARG_OF_PERICENTER":326.3781,"MEAN_ANOMALY":204.5411,"EPHEMERIS_TYPE":0,"CLASSIFICATION_TYPE":"U","NORAD_CAT_ID":27380,"ELEMENT_SET_NO":999,"REV_AT_EPOCH":5102,"BSTAR":0,"MEAN_MOTION_DOT":-2.23e-6,"MEAN_MOTION_DDOT":0},{"OBJECT_NAME":"DIRECTV 5 (TEMPO 1)","OBJECT_ID":"2002-023A","EPOCH":"2026-04-04T01:59:41.518752","MEAN_MOTION":1.00272799,"ECCENTRICITY":0.00037829,"INCLINATION":4.6893,"RA_OF_ASC_NODE":76.2183,"ARG_OF_PERICENTER":309.0319,"MEAN_ANOMALY":86.9757,"EPHEMERIS_TYPE":0,"CLASSIFICATION_TYPE":"U","NORAD_CAT_ID":27426,"ELEMENT_SET_NO":999,"REV_AT_EPOCH":8738,"BSTAR":0,"MEAN_MOTION_DOT":-5.6e-7,"MEAN_MOTION_DDOT":0},{"OBJECT_NAME":"INTELSAT 905 (IS-905)","OBJECT_ID":"2002-027A","EPOCH":"2026-04-03T01:54:25.943616","MEAN_MOTION":1.00273159,"ECCENTRICITY":0.00032672,"INCLINATION":6.5662,"RA_OF_ASC_NODE":70.6915,"ARG_OF_PERICENTER":315.6989,"MEAN_ANOMALY":56.4288,"EPHEMERIS_TYPE":0,"CLASSIFICATION_TYPE":"U","NORAD_CAT_ID":27438,"ELEMENT_SET_NO":999,"REV_AT_EPOCH":5061,"BSTAR":0,"MEAN_MOTION_DOT":9.4e-7,"MEAN_MOTION_DDOT":0},{"OBJECT_NAME":"GALAXY 3C (G-3C)","OBJECT_ID":"2002-030A","EPOCH":"2026-04-04T02:04:03.600192","MEAN_MOTION":1.00271706,"ECCENTRICITY":0.00015853,"INCLINATION":3.5396,"RA_OF_ASC_NODE":78.9965,"ARG_OF_PERICENTER":20.051,"MEAN_ANOMALY":29.5147,"EPHEMERIS_TYPE":0,"CLASSIFICATION_TYPE":"U","NORAD_CAT_ID":27445,"ELEMENT_SET_NO":999,"REV_AT_EPOCH":4575,"BSTAR":0,"MEAN_MOTION_DOT":-1.52e-6,"MEAN_MOTION_DDOT":0},{"OBJECT_NAME":"INTELSAT 906 (IS-906)","OBJECT_ID":"2002-041A","EPOCH":"2026-04-04T01:06:39.106944","MEAN_MOTION":1.00272042,"ECCENTRICITY":0.00033369,"INCLINATION":5.6153,"RA_OF_ASC_NODE":73.8182,"ARG_OF_PERICENTER":309.3798,"MEAN_ANOMALY":249.9777,"EPHEMERIS_TYPE":0,"CLASSIFICATION_TYPE":"U","NORAD_CAT_ID":27513,"ELEMENT_SET_NO":999,"REV_AT_EPOCH":8628,"BSTAR":0,"MEAN_MOTION_DOT":1.4e-7,"MEAN_MOTION_DDOT":0},{"OBJECT_NAME":"GALAXY 13 (HORIZONS-1)","OBJECT_ID":"2003-044A","EPOCH":"2026-04-04T00:05:37.461120","MEAN_MOTION":1.00274974,"ECCENTRICITY":0.00021845,"INCLINATION":1.227,"RA_OF_ASC_NODE":84.7823,"ARG_OF_PERICENTER":294.2182,"MEAN_ANOMALY":24.7524,"EPHEMERIS_TYPE":0,"CLASSIFICATION_TYPE":"U","NORAD_CAT_ID":27954,"ELEMENT_SET_NO":999,"REV_AT_EPOCH":4582,"BSTAR":0,"MEAN_MOTION_DOT":1.32e-6,"MEAN_MOTION_DDOT":0},{"OBJECT_NAME":"INTELSAT 10-02","OBJECT_ID":"2004-022A","EPOCH":"2026-04-04T04:13:28.687872","MEAN_MOTION":1.00273868,"ECCENTRICITY":0.00020451,"INCLINATION":0.0414,"RA_OF_ASC_NODE":40.9899,"ARG_OF_PERICENTER":32.9911,"MEAN_ANOMALY":180.8739,"EPHEMERIS_TYPE":0,"CLASSIFICATION_TYPE":"U","NORAD_CAT_ID":28358,"ELEMENT_SET_NO":999,"REV_AT_EPOCH":7981,"BSTAR":0,"MEAN_MOTION_DOT":-1.1e-7,"MEAN_MOTION_DDOT":0},{"OBJECT_NAME":"DIRECTV 8","OBJECT_ID":"2005-019A","EPOCH":"2026-04-04T05:22:29.567712","MEAN_MOTION":1.00272057,"ECCENTRICITY":0.00033787,"INCLINATION":0.0215,"RA_OF_ASC_NODE":114.1398,"ARG_OF_PERICENTER":273.4781,"MEAN_ANOMALY":126.496,"EPHEMERIS_TYPE":0,"CLASSIFICATION_TYPE":"U","NORAD_CAT_ID":28659,"ELEMENT_SET_NO":999,"REV_AT_EPOCH":7633,"BSTAR":0,"MEAN_MOTION_DOT":1.0e-8,"MEAN_MOTION_DDOT":0},{"OBJECT_NAME":"GALAXY 28 (G-28)","OBJECT_ID":"2005-022A","EPOCH":"2026-04-04T05:11:38.889312","MEAN_MOTION":1.00270718,"ECCENTRICITY":0.00022741,"INCLINATION":3.1082,"RA_OF_ASC_NODE":79.8326,"ARG_OF_PERICENTER":300.2351,"MEAN_ANOMALY":223.2857,"EPHEMERIS_TYPE":0,"CLASSIFICATION_TYPE":"U","NORAD_CAT_ID":28702,"ELEMENT_SET_NO":999,"REV_AT_EPOCH":5123,"BSTAR":0,"MEAN_MOTION_DOT":-1.99e-6,"MEAN_MOTION_DDOT":0},{"OBJECT_NAME":"GALAXY 16 (G-16)","OBJECT_ID":"2006-023A","EPOCH":"2026-04-04T04:26:38.550624","MEAN_MOTION":1.00272619,"ECCENTRICITY":0.00028356,"INCLINATION":0.0179,"RA_OF_ASC_NODE":209.7815,"ARG_OF_PERICENTER":170.4988,"MEAN_ANOMALY":139.874,"EPHEMERIS_TYPE":0,"CLASSIFICATION_TYPE":"U","NORAD_CAT_ID":29236,"ELEMENT_SET_NO":999,"REV_AT_EPOCH":7223,"BSTAR":0,"MEAN_MOTION_DOT":-1.28e-6,"MEAN_MOTION_DDOT":0},{"OBJECT_NAME":"DIRECTV 9S","OBJECT_ID":"2006-043A","EPOCH":"2026-04-04T06:34:20.625312","MEAN_MOTION":1.00272053,"ECCENTRICITY":0.00038123,"INCLINATION":2.2303,"RA_OF_ASC_NODE":81.7758,"ARG_OF_PERICENTER":309.1608,"MEAN_ANOMALY":159.0438,"EPHEMERIS_TYPE":0,"CLASSIFICATION_TYPE":"U","NORAD_CAT_ID":29494,"ELEMENT_SET_NO":999,"REV_AT_EPOCH":5064,"BSTAR":0,"MEAN_MOTION_DOT":-1.13e-6,"MEAN_MOTION_DDOT":0},{"OBJECT_NAME":"GALAXY 17 (G-17)","OBJECT_ID":"2007-016B","EPOCH":"2026-04-04T05:32:13.634304","MEAN_MOTION":1.00271754,"ECCENTRICITY":0.00040555,"INCLINATION":2.7853,"RA_OF_ASC_NODE":80.8115,"ARG_OF_PERICENTER":307.0162,"MEAN_ANOMALY":162.7732,"EPHEMERIS_TYPE":0,"CLASSIFICATION_TYPE":"U","NORAD_CAT_ID":31307,"ELEMENT_SET_NO":999,"REV_AT_EPOCH":6906,"BSTAR":0,"MEAN_MOTION_DOT":-2.05e-6,"MEAN_MOTION_DDOT":0},{"OBJECT_NAME":"INTELSAT 11 (IS-11)","OBJECT_ID":"2007-044B","EPOCH":"2026-04-04T01:14:38.340960","MEAN_MOTION":0.99048005,"ECCENTRICITY":0.00028588,"INCLINATION":3.3728,"RA_OF_ASC_NODE":79.553,"ARG_OF_PERICENTER":221.4154,"MEAN_ANOMALY":1.8985,"EPHEMERIS_TYPE":0,"CLASSIFICATION_TYPE":"U","NORAD_CAT_ID":32253,"ELEMENT_SET_NO":999,"REV_AT_EPOCH":6771,"BSTAR":0,"MEAN_MOTION_DOT":-2.5e-7,"MEAN_MOTION_DDOT":0},{"OBJECT_NAME":"HORIZONS-2","OBJECT_ID":"2007-063B","EPOCH":"2026-04-04T05:35:28.322880","MEAN_MOTION":1.00270867,"ECCENTRICITY":0.00028419,"INCLINATION":2.4117,"RA_OF_ASC_NODE":81.5248,"ARG_OF_PERICENTER":304.7122,"MEAN_ANOMALY":176.3776,"EPHEMERIS_TYPE":0,"CLASSIFICATION_TYPE":"U","NORAD_CAT_ID":32388,"ELEMENT_SET_NO":999,"REV_AT_EPOCH":6707,"BSTAR":0,"MEAN_MOTION_DOT":-2.53e-6,"MEAN_MOTION_DDOT":0},{"OBJECT_NAME":"DIRECTV 11","OBJECT_ID":"2008-013A","EPOCH":"2026-04-04T03:19:38.743968","MEAN_MOTION":1.00272226,"ECCENTRICITY":3.195e-5,"INCLINATION":0.0432,"RA_OF_ASC_NODE":33.64,"ARG_OF_PERICENTER":313.9766,"MEAN_ANOMALY":155.5541,"EPHEMERIS_TYPE":0,"CLASSIFICATION_TYPE":"U","NORAD_CAT_ID":32729,"ELEMENT_SET_NO":999,"REV_AT_EPOCH":4485,"BSTAR":0,"MEAN_MOTION_DOT":-1.27e-6,"MEAN_MOTION_DDOT":0},{"OBJECT_NAME":"GALAXY 18 (G-18)","OBJECT_ID":"2008-024A","EPOCH":"2026-04-04T05:21:22.175712","MEAN_MOTION":1.00272722,"ECCENTRICITY":0.00030764,"INCLINATION":0.017,"RA_OF_ASC_NODE":215.9186,"ARG_OF_PERICENTER":158.852,"MEAN_ANOMALY":135.1113,"EPHEMERIS_TYPE":0,"CLASSIFICATION_TYPE":"U","NORAD_CAT_ID":32951,"ELEMENT_SET_NO":999,"REV_AT_EPOCH":4511,"BSTAR":0,"MEAN_MOTION_DOT":2.4e-7,"MEAN_MOTION_DDOT":0}]
